STARLINK-36284          
1 67194U 25304C   26005.25002315  .00118358  00000+0  19027-2 0  9998
2 67194  70.0001 341.2450 0002976 257.6533  22.9280 15.52452317  4249
STARLINK-36291          
1 67195U 25304D   26005.25002315 -.00128919  00000+0 -21221-2 0  9994
2 67195  70.0004 341.2429 0003259 265.8977  16.6870 15.52581950  4248
STARLINK-36239          
1 67196U 25304E   26005.25002315 -.00102114  00000+0 -16752-2 0  9997
2 67196  70.0000 341.2413 0003478 266.8974  17.5982 15.52571349  4244
STARLINK-36283          
1 67197U 25304F   26005.25002315  .00115879  00000+0  18631-2 0  9996
2 67197  70.0000 341.2361 0002973 253.9575  34.2875 15.52457773  4241
STARLINK-36267          
1 67198U 25304G   26005.25002315  .00112015  00000+0  18024-2 0  9992
2 67198  70.0001 341.2387 0002985 255.3206  31.0198 15.52450725  4211
STARLINK-36268          
1 67199U 25304H   26005.25002315  .00110559  00000+0  17790-2 0  9993
2 67199  70.0000 341.2342 0002971 257.3791  32.7879 15.52456803  4248
STARLINK-36270          
1 67200U 25304J   26005.25002315 -.00297723  00000+0 -50005-2 0  9993
2 67200  70.0001 341.2307 0003025 267.3780  24.7853 15.52627483  4240
STARLINK-36262          
1 67201U 25304K   26005.25002315 -.00059860  00000+0 -97632-3 0  9990
2 67201  69.9999 341.2299 0003549 267.5584  26.5055 15.52554203  4242
STARLINK-36263          
1 67202U 25304L   26005.25002315 -.00031657  00000+0 -51403-3 0  9991
2 67202  70.0001 341.2263 0003025 265.7604  30.2745 15.52513265  4244
STARLINK-36224          
1 67203U 25304M   26005.25002315 -.00062351  00000+0 -10178-2 0  9990
2 67203  69.9999 341.2247 0003131 269.9164  28.0090 15.52544447  4249
STARLINK-36185          
1 67204U 25304N   26005.25002315 -.00026007  00000+0 -42150-3 0  9995
2 67204  70.0000 341.2213 0003008 270.2208  29.6399 15.52513014  4241
STARLINK-36197          
1 67205U 25304P   26005.25002315 -.00075697  00000+0 -12380-2 0  9996
2 67205  70.0001 341.2203 0003041 269.6232  32.1325 15.52551793  4219
