CCSDS_OMM_VERS = 2.0
CREATION_DATE  = 
ORIGINATOR     = 

OBJECT_NAME    = STARLINK-36284
OBJECT_ID      = 2025-304C
CENTER_NAME    = EARTH
REF_FRAME      = TEME
TIME_SYSTEM    = UTC
MEAN_ELEMENT_THEORY = SGP/SGP4

EPOCH          = 2026-01-05T06:00:02.000160
MEAN_MOTION    = 15.52452317
ECCENTRICITY   = .00029765
INCLINATION    = 70.0001
RA_OF_ASC_NODE = 341.2450
ARG_OF_PERICENTER = 257.6533
MEAN_ANOMALY   = 22.9280

EPHEMERIS_TYPE = 0
CLASSIFICATION_TYPE = U
NORAD_CAT_ID   = 67194
ELEMENT_SET_NO = 999
REV_AT_EPOCH   = 424
BSTAR          = .19026856E-2
MEAN_MOTION_DOT = .118358E-2
MEAN_MOTION_DDOT = 0

CCSDS_OMM_VERS = 2.0
CREATION_DATE  = 
ORIGINATOR     = 

OBJECT_NAME    = STARLINK-36291
OBJECT_ID      = 2025-304D
CENTER_NAME    = EARTH
REF_FRAME      = TEME
TIME_SYSTEM    = UTC
MEAN_ELEMENT_THEORY = SGP/SGP4

EPOCH          = 2026-01-05T06:00:02.000160
MEAN_MOTION    = 15.52581950
ECCENTRICITY   = .00032594
INCLINATION    = 70.0004
RA_OF_ASC_NODE = 341.2429
ARG_OF_PERICENTER = 265.8977
MEAN_ANOMALY   = 16.6870

EPHEMERIS_TYPE = 0
CLASSIFICATION_TYPE = U
NORAD_CAT_ID   = 67195
ELEMENT_SET_NO = 999
REV_AT_EPOCH   = 424
BSTAR          = -.21220862E-2
MEAN_MOTION_DOT = -.128919E-2
MEAN_MOTION_DDOT = 0

CCSDS_OMM_VERS = 2.0
CREATION_DATE  = 
ORIGINATOR     = 

OBJECT_NAME    = STARLINK-36239
OBJECT_ID      = 2025-304E
CENTER_NAME    = EARTH
REF_FRAME      = TEME
TIME_SYSTEM    = UTC
MEAN_ELEMENT_THEORY = SGP/SGP4

EPOCH          = 2026-01-05T06:00:02.000160
MEAN_MOTION    = 15.52571349
ECCENTRICITY   = .00034786
INCLINATION    = 70.0000
RA_OF_ASC_NODE = 341.2413
ARG_OF_PERICENTER = 266.8974
MEAN_ANOMALY   = 17.5982

EPHEMERIS_TYPE = 0
CLASSIFICATION_TYPE = U
NORAD_CAT_ID   = 67196
ELEMENT_SET_NO = 999
REV_AT_EPOCH   = 424
BSTAR          = -.16752346E-2
MEAN_MOTION_DOT = -.102114E-2
MEAN_MOTION_DDOT = 0

CCSDS_OMM_VERS = 2.0
CREATION_DATE  = 
ORIGINATOR     = 

OBJECT_NAME    = STARLINK-36283
OBJECT_ID      = 2025-304F
CENTER_NAME    = EARTH
REF_FRAME      = TEME
TIME_SYSTEM    = UTC
MEAN_ELEMENT_THEORY = SGP/SGP4

EPOCH          = 2026-01-05T06:00:02.000160
MEAN_MOTION    = 15.52457773
ECCENTRICITY   = .00029735
INCLINATION    = 70.0000
RA_OF_ASC_NODE = 341.2361
ARG_OF_PERICENTER = 253.9575
MEAN_ANOMALY   = 34.2875

EPHEMERIS_TYPE = 0
CLASSIFICATION_TYPE = U
NORAD_CAT_ID   = 67197
ELEMENT_SET_NO = 999
REV_AT_EPOCH   = 424
BSTAR          = .18631072E-2
MEAN_MOTION_DOT = .115879E-2
MEAN_MOTION_DDOT = 0

CCSDS_OMM_VERS = 2.0
CREATION_DATE  = 
ORIGINATOR     = 

OBJECT_NAME    = STARLINK-36267
OBJECT_ID      = 2025-304G
CENTER_NAME    = EARTH
REF_FRAME      = TEME
TIME_SYSTEM    = UTC
MEAN_ELEMENT_THEORY = SGP/SGP4

EPOCH          = 2026-01-05T06:00:02.000160
MEAN_MOTION    = 15.52450725
ECCENTRICITY   = .00029856
INCLINATION    = 70.0001
RA_OF_ASC_NODE = 341.2387
ARG_OF_PERICENTER = 255.3206
MEAN_ANOMALY   = 31.0198

EPHEMERIS_TYPE = 0
CLASSIFICATION_TYPE = U
NORAD_CAT_ID   = 67198
ELEMENT_SET_NO = 999
REV_AT_EPOCH   = 421
BSTAR          = .18024015E-2
MEAN_MOTION_DOT = .112015E-2
MEAN_MOTION_DDOT = 0

CCSDS_OMM_VERS = 2.0
CREATION_DATE  = 
ORIGINATOR     = 

OBJECT_NAME    = STARLINK-36268
OBJECT_ID      = 2025-304H
CENTER_NAME    = EARTH
REF_FRAME      = TEME
TIME_SYSTEM    = UTC
MEAN_ELEMENT_THEORY = SGP/SGP4

EPOCH          = 2026-01-05T06:00:02.000160
MEAN_MOTION    = 15.52456803
ECCENTRICITY   = .00029718
INCLINATION    = 70.0000
RA_OF_ASC_NODE = 341.2342
ARG_OF_PERICENTER = 257.3791
MEAN_ANOMALY   = 32.7879

EPHEMERIS_TYPE = 0
CLASSIFICATION_TYPE = U
NORAD_CAT_ID   = 67199
ELEMENT_SET_NO = 999
REV_AT_EPOCH   = 424
BSTAR          = .1778961E-2
MEAN_MOTION_DOT = .110559E-2
MEAN_MOTION_DDOT = 0

CCSDS_OMM_VERS = 2.0
CREATION_DATE  = 
ORIGINATOR     = 

OBJECT_NAME    = STARLINK-36270
OBJECT_ID      = 2025-304J
CENTER_NAME    = EARTH
REF_FRAME      = TEME
TIME_SYSTEM    = UTC
MEAN_ELEMENT_THEORY = SGP/SGP4

EPOCH          = 2026-01-05T06:00:02.000160
MEAN_MOTION    = 15.52627483
ECCENTRICITY   = .00030253
INCLINATION    = 70.0001
RA_OF_ASC_NODE = 341.2307
ARG_OF_PERICENTER = 267.3780
MEAN_ANOMALY   = 24.7853

EPHEMERIS_TYPE = 0
CLASSIFICATION_TYPE = U
NORAD_CAT_ID   = 67200
ELEMENT_SET_NO = 999
REV_AT_EPOCH   = 424
BSTAR          = -.5000509E-2
MEAN_MOTION_DOT = -.297723E-2
MEAN_MOTION_DDOT = 0

CCSDS_OMM_VERS = 2.0
CREATION_DATE  = 
ORIGINATOR     = 

OBJECT_NAME    = STARLINK-36262
OBJECT_ID      = 2025-304K
CENTER_NAME    = EARTH
REF_FRAME      = TEME
TIME_SYSTEM    = UTC
MEAN_ELEMENT_THEORY = SGP/SGP4

EPOCH          = 2026-01-05T06:00:02.000160
MEAN_MOTION    = 15.52554203
ECCENTRICITY   = .00035496
INCLINATION    = 69.9999
RA_OF_ASC_NODE = 341.2299
ARG_OF_PERICENTER = 267.5584
MEAN_ANOMALY   = 26.5055

EPHEMERIS_TYPE = 0
CLASSIFICATION_TYPE = U
NORAD_CAT_ID   = 67201
ELEMENT_SET_NO = 999
REV_AT_EPOCH   = 424
BSTAR          = -.97632028E-3
MEAN_MOTION_DOT = -.5986E-3
MEAN_MOTION_DDOT = 0

CCSDS_OMM_VERS = 2.0
CREATION_DATE  = 
ORIGINATOR     = 

OBJECT_NAME    = STARLINK-36263
OBJECT_ID      = 2025-304L
CENTER_NAME    = EARTH
REF_FRAME      = TEME
TIME_SYSTEM    = UTC
MEAN_ELEMENT_THEORY = SGP/SGP4

EPOCH          = 2026-01-05T06:00:02.000160
MEAN_MOTION    = 15.52513265
ECCENTRICITY   = .00030252
INCLINATION    = 70.0001
RA_OF_ASC_NODE = 341.2263
ARG_OF_PERICENTER = 265.7604
MEAN_ANOMALY   = 30.2745

EPHEMERIS_TYPE = 0
CLASSIFICATION_TYPE = U
NORAD_CAT_ID   = 67202
ELEMENT_SET_NO = 999
REV_AT_EPOCH   = 424
BSTAR          = -.51402627E-3
MEAN_MOTION_DOT = -.31657E-3
MEAN_MOTION_DDOT = 0

CCSDS_OMM_VERS = 2.0
CREATION_DATE  = 
ORIGINATOR     = 

OBJECT_NAME    = STARLINK-36224
OBJECT_ID      = 2025-304M
CENTER_NAME    = EARTH
REF_FRAME      = TEME
TIME_SYSTEM    = UTC
MEAN_ELEMENT_THEORY = SGP/SGP4

EPOCH          = 2026-01-05T06:00:02.000160
MEAN_MOTION    = 15.52544447
ECCENTRICITY   = .00031313
INCLINATION    = 69.9999
RA_OF_ASC_NODE = 341.2247
ARG_OF_PERICENTER = 269.9164
MEAN_ANOMALY   = 28.0090

EPHEMERIS_TYPE = 0
CLASSIFICATION_TYPE = U
NORAD_CAT_ID   = 67203
ELEMENT_SET_NO = 999
REV_AT_EPOCH   = 424
BSTAR          = -.10178069E-2
MEAN_MOTION_DOT = -.62351E-3
MEAN_MOTION_DDOT = 0

CCSDS_OMM_VERS = 2.0
CREATION_DATE  = 
ORIGINATOR     = 

OBJECT_NAME    = STARLINK-36185
OBJECT_ID      = 2025-304N
CENTER_NAME    = EARTH
REF_FRAME      = TEME
TIME_SYSTEM    = UTC
MEAN_ELEMENT_THEORY = SGP/SGP4

EPOCH          = 2026-01-05T06:00:02.000160
MEAN_MOTION    = 15.52513014
ECCENTRICITY   = .0003008
INCLINATION    = 70.0000
RA_OF_ASC_NODE = 341.2213
ARG_OF_PERICENTER = 270.2208
MEAN_ANOMALY   = 29.6399

EPHEMERIS_TYPE = 0
CLASSIFICATION_TYPE = U
NORAD_CAT_ID   = 67204
ELEMENT_SET_NO = 999
REV_AT_EPOCH   = 424
BSTAR          = -.42149915E-3
MEAN_MOTION_DOT = -.26007E-3
MEAN_MOTION_DDOT = 0

CCSDS_OMM_VERS = 2.0
CREATION_DATE  = 
ORIGINATOR     = 

OBJECT_NAME    = STARLINK-36197
OBJECT_ID      = 2025-304P
CENTER_NAME    = EARTH
REF_FRAME      = TEME
TIME_SYSTEM    = UTC
MEAN_ELEMENT_THEORY = SGP/SGP4

EPOCH          = 2026-01-05T06:00:02.000160
MEAN_MOTION    = 15.52551793
ECCENTRICITY   = .00030415
INCLINATION    = 70.0001
RA_OF_ASC_NODE = 341.2203
ARG_OF_PERICENTER = 269.6232
MEAN_ANOMALY   = 32.1325

EPHEMERIS_TYPE = 0
CLASSIFICATION_TYPE = U
NORAD_CAT_ID   = 67205
ELEMENT_SET_NO = 999
REV_AT_EPOCH   = 421
BSTAR          = -.12380135E-2
MEAN_MOTION_DOT = -.75697E-3
MEAN_MOTION_DDOT = 0

